HULIANWANG DIGUI-01     
1 62323U 24240A   26065.63048219  .00000045  00000+0  69701-4 0  9995
2 62323  86.5032  17.8128 0001954  85.4951 274.6407 13.24420619 59062
HULIANWANG DIGUI-02     
1 62324U 24240B   26065.63794194  .00000060  00000+0  10512-3 0  9998
2 62324  86.5061  17.9407 0001884  89.2435 270.8915 13.24422226 59076
HULIANWANG DIGUI-03     
1 62325U 24240C   26065.62280912  .00000033  00000+0  42050-4 0  9999
2 62325  86.5015  17.7347 0002027  84.0137 276.1229 13.24422185 59069
HULIANWANG DIGUI-04     
1 62326U 24240D   26065.61528786  .00000038  00000+0  55333-4 0  9996
2 62326  86.5025  17.7691 0002065  84.7226 275.4143 13.24421911 59064
HULIANWANG DIGUI-05     
1 62327U 24240E   26065.60778234  .00000046  00000+0  73084-4 0  9993
2 62327  86.5076  17.9917 0002095  83.7394 276.3979 13.24421149 59062
HULIANWANG DIGUI-06     
1 62328U 24240F   26065.59257099  .00000067  00000+0  12260-3 0  9994
2 62328  86.5015  17.7149 0002052  88.0390 272.0979 13.24423042 59065
HULIANWANG DIGUI-07     
1 62329U 24240G   26065.58511495  .00000069  00000+0  12705-3 0  9993
2 62329  86.4985  17.5852 0002035  86.3830 273.7537 13.24421134 59069
HULIANWANG DIGUI-08     
1 62330U 24240H   26065.60024447  .00000057  00000+0  98533-4 0  9995
2 62330  86.5068  17.9516 0002141  84.8087 275.3291 13.24421050 59062
HULIANWANG DIGUI-09     
1 62331U 24240J   26065.57748741  .00000068  00000+0  12460-3 0  9998
2 62331  86.5033  17.8540 0001993  88.6965 271.4398 13.24422342 59051
HULIANWANG DIGUI-10     
1 62332U 24240K   26065.56997365  .00000065  00000+0  11787-3 0  9994
2 62332  86.5064  17.9794 0001989  90.4898 269.6464 13.24421736 59058
HULIANWANG DIGUI-11     
1 62971U 25030A   26065.54017345 -.00000084  00000+0  86573-4 0  9998
2 62971  49.9992 243.9940 0000758 171.8275 188.2610 13.29337933 52209
HULIANWANG DIGUI-12     
1 62972U 25030B   26065.54841228 -.00000093  00000+0  66414-4 0  9996
2 62972  50.0008 244.0835 0000878 165.5691 194.5206 13.29339986 52202
HULIANWANG DIGUI-13     
1 62973U 25030C   26065.60696691 -.00000098  00000+0  56395-4 0  9998
2 62973  50.0011 243.7392 0000720 158.2295 201.8608 13.29338004 52215
HULIANWANG DIGUI-14     
1 62974U 25030D   26065.58196605 -.00000090  00000+0  73002-4 0  9992
2 62974  50.0016 243.6271 0000796 157.2281 202.8627 13.29337831 52212
HULIANWANG DIGUI-15     
1 62975U 25030E   26065.59864873 -.00000095  00000+0  63557-4 0  9992
2 62975  50.0011 243.6985 0000712 166.0876 194.0016 13.29338048 52211
HULIANWANG DIGUI-16     
1 62976U 25030F   26065.57356169 -.00000089  00000+0  74732-4 0  9995
2 62976  50.0034 243.6363 0000816 156.3175 203.7735 13.29338553 52213
HULIANWANG DIGUI-17     
1 62977U 25030G   26065.56524469 -.00000099  00000+0  54767-4 0  9992
2 62977  50.0046 243.6323 0000756 161.8248 198.2651 13.29338242 52218
HULIANWANG DIGUI-18     
1 62978U 25030H   26065.55687152 -.00000091  00000+0  71322-4 0  9999
2 62978  50.0051 243.5989 0000771 162.2654 197.8245 13.29338314 52219
HULIANWANG DIGUI-19     
1 62979U 25030J   26065.59007904 -.00000093  00000+0  66757-4 0  9993
2 62979  50.0036 243.7275 0000813 157.3293 202.7615 13.29341521 52215
HULIANWANG DIGUI-20     
1 63687U 25086A   26065.58138776  .00000085  00000+0  16379-3 0  9996
2 63687  86.5125 347.6841 0001762  91.5826 268.5510 13.24420278 41295
HULIANWANG DIGUI-21     
1 63688U 25086B   26065.58887833  .00000082  00000+0  15682-3 0  9995
2 63688  86.5153 347.7112 0001656  94.6293 265.5030 13.24421914 41284
HULIANWANG DIGUI-22     
1 63689U 25086C   26065.59644258  .00000063  00000+0  11379-3 0  9997
2 63689  86.5119 347.6113 0001830  91.6702 268.4642 13.24421619 41286
HULIANWANG DIGUI-23     
1 63690U 25086D   26065.61149956  .00000046  00000+0  74105-4 0  9995
2 63690  86.5160 347.7433 0001760  87.9328 272.2008 13.24422378 41286
HULIANWANG DIGUI-24     
1 63691U 25086E   26065.61911367  .00000058  00000+0  10022-3 0  9999
2 63691  86.5167 347.7675 0001805  92.3698 267.7642 13.24420487 41284
HULIANWANG DIGUI-25     
1 63692U 25086F   26065.62664416  .00000064  00000+0  11558-3 0  9993
2 63692  86.5105 347.5860 0001699  91.3625 268.7704 13.24421897 41287
HULIANWANG DIGUI-26     
1 63693U 25086G   26065.60387259  .00000058  00000+0  10157-3 0  9996
2 63693  86.5154 347.7207 0001784  96.2464 263.8873 13.24421430 41285
HULIANWANG DIGUI-27     
1 63694U 25086H   26065.63427935  .00000074  00000+0  13741-3 0  9996
2 63694  86.5115 347.6181 0001808  91.1182 269.0159 13.24420266 41282
HULIANWANG DIGUI-28     
1 63695U 25086J   26065.57376277  .00000093  00000+0  18349-3 0  9992
2 63695  86.5079 347.5425 0001811  91.1891 268.9450 13.24421581 41275
HULIANWANG DIGUI-29     
1 63696U 25086K   26065.56628758  .00000085  00000+0  16503-3 0  9997
2 63696  86.5107 347.6254 0001694  91.9120 268.2208 13.24420418 41273
HULIANWANG DIGUI-30     
1 64283U 25121A   26065.57365372  .00000030  00000+0  36809-4 0  9993
2 64283  86.4950  48.1761 0001990  77.9646 282.1711 13.24423390 36576
HULIANWANG DIGUI-31     
1 64284U 25121B   26065.64187275  .00000020  00000+0  13516-4 0  9995
2 64284  86.4971  48.2038 0002011  78.2579 281.8781 13.24419605 36580
HULIANWANG DIGUI-32     
1 64285U 25121C   26065.55840880  .00000034  00000+0  44686-4 0  9991
2 64285  86.4912  48.0607 0002002  80.2599 279.8761 13.24425355 36574
HULIANWANG DIGUI-33     
1 64286U 25121D   26065.55083312  .00000022  00000+0  17225-4 0  9997
2 64286  86.4970  48.2192 0002070  76.9719 283.1646 13.24425491 36572
HULIANWANG DIGUI-34     
1 64287U 25121E   26065.61887809  .00000013  00000+0 -37267-5 0  9998
2 64287  86.4948  48.1279 0002202  72.9816 287.1559 13.24424341 36585
HULIANWANG DIGUI-35     
1 64956U 25159A   26065.66089625  .00000072  00000+0  13384-3 0  9993
2 64956  86.4982 317.0881 0001265  73.5584 286.5689 13.24417359 29557
HULIANWANG DIGUI-36     
1 64957U 25159B   26065.65314636  .00000084  00000+0  16150-3 0  9993
2 64957  86.5002 317.1287 0001344  72.1532 287.9749 13.24419956 29556
HULIANWANG DIGUI-37     
1 64958U 25159C   26065.64560479  .00000080  00000+0  15340-3 0  9997
2 64958  86.4943 316.9925 0001431  69.2961 290.8327 13.24419501 29557
HULIANWANG DIGUI-38     
1 64959U 25159D   26065.63806955  .00000079  00000+0  15046-3 0  9990
2 64959  86.5002 317.1216 0001414  71.8678 288.2610 13.24419655 29552
HULIANWANG DIGUI-39     
1 64960U 25159E   26065.63050193  .00000080  00000+0  15116-3 0  9997
2 64960  86.4977 317.0636 0001419  73.1903 286.9386 13.24419837 29557
HULIANWANG DIGUI-40     
1 65043U 25162A   26065.62160518 -.00000080  00000+0  94760-4 0  9990
2 65043  49.9987 273.8332 0001030  78.2318 281.8670 13.29332367 29706
HULIANWANG DIGUI-41     
1 65044U 25162B   26065.61325252 -.00000083  00000+0  88097-4 0  9997
2 65044  49.9997 273.8072 0001069  78.3026 281.7966 13.29332767 29710
HULIANWANG DIGUI-42     
1 65045U 25162C   26065.60487152 -.00000083  00000+0  87744-4 0  9993
2 65045  49.9962 273.7015 0001012  79.9722 280.1264 13.29332161 29719
HULIANWANG DIGUI-43     
1 65046U 25162D   26065.59649624 -.00000083  00000+0  87897-4 0  9995
2 65046  49.9979 273.6900 0001005  78.7601 281.3384 13.29333200 29716
HULIANWANG DIGUI-44     
1 65047U 25162E   26065.58784400 -.00000087  00000+0  80551-4 0  9991
2 65047  50.0006 273.6932 0000766 358.0352   2.0517 13.29340739 29728
HULIANWANG DIGUI-45     
1 65048U 25162F   26065.57982433 -.00000080  00000+0  94218-4 0  9995
2 65048  50.0036 273.7053 0001053  79.2620 280.8371 13.29333041 29718
HULIANWANG DIGUI-46     
1 65049U 25162G   26065.57146906 -.00000078  00000+0  99911-4 0  9995
2 65049  50.0054 273.6948 0001055  81.0843 279.0148 13.29332954 29715
HULIANWANG DIGUI-47     
1 65050U 25162H   26065.63829166 -.00000081  00000+0  92544-4 0  9999
2 65050  50.0018 273.3192 0001045  81.8270 278.2721 13.29332796 29729
HULIANWANG DIGUI-48     
1 65051U 25162J   26065.62996069 -.00000074  00000+0  10685-3 0  9993
2 65051  50.0028 273.2931 0001032  79.5408 280.5581 13.29332326 29723
HULIANWANG DIGUI-49     
1 65106U 25168A   26065.61636061 -.00000027  00000+0  20921-3 0  9994
2 65106  50.0048 333.8476 0007417 156.3855 203.7359 13.29339009 29046
HULIANWANG DIGUI-50     
1 65107U 25168B   26065.60795768 -.00000039  00000+0  18219-3 0  9994
2 65107  50.0019 333.7466 0008393 142.3532 217.7929 13.29339598 29045
HULIANWANG DIGUI-51     
1 65108U 25168C   26065.59959216 -.00000037  00000+0  18800-3 0  9997
2 65108  50.0056 333.7731 0009749 142.3370 217.8187 13.29339880 29049
HULIANWANG DIGUI-52     
1 65109U 25168D   26065.59135376 -.00000030  00000+0  20170-3 0  9997
2 65109  50.0049 333.7126 0009612 155.2649 204.8685 13.29338504 29042
HULIANWANG DIGUI-53     
1 65110U 25168E   26065.58299892 -.00000034  00000+0  19314-3 0  9994
2 65110  50.0057 333.6910 0008431 144.9012 215.2417 13.29338373 29043
HULIANWANG DIGUI-54     
1 65111U 25168F   26065.63330250 -.00000030  00000+0  20236-3 0  9996
2 65111  50.0007 333.2008 0010000 150.4680 209.6758 13.29335648 29059
HULIANWANG DIGUI-55     
1 65112U 25168G   26065.57456997 -.00000034  00000+0  19492-3 0  9993
2 65112  50.0013 333.5641 0011303 146.0405 214.1192 13.29339091 29044
HULIANWANG DIGUI-56     
1 65113U 25168H   26065.56623609 -.00000035  00000+0  19161-3 0  9993
2 65113  50.0005 333.5051 0010998 168.0083 192.1053 13.29338472 29049
HULIANWANG DIGUI-57     
1 65114U 25168J   26065.62497392 -.00000027  00000+0  20810-3 0  9993
2 65114  50.0032 333.2054 0008745 158.6459 201.4779 13.29335485 29061
HULIANWANG DIGUI-58     
1 65164U 25174A   26065.59644381  .00000034  00000+0  45970-4 0  9995
2 65164  86.4924 286.6774 0001267  88.6744 271.4536 13.24421223 27214
HULIANWANG DIGUI-59     
1 65165U 25174B   26065.60399440  .00000049  00000+0  80768-4 0  9991
2 65165  86.4884 286.6038 0001248  87.8869 272.2408 13.24421424 27211
